[{"OBJECT_NAME":"ONEWEB-0101","OBJECT_ID":"2021-025H","EPOCH":"2025-12-07T18:51:01.093248","MEAN_MOTION":13.13471553,"ECCENTRICITY":0.00017105,"INCLINATION":87.8979,"RA_OF_ASC_NODE":358.2771,"ARG_OF_PERICENTER":87.0805,"MEAN_ANOMALY":273.052,"EPHEMERIS_TYPE":0,"CLASSIFICATION_TYPE":"U","NORAD_CAT_ID":48049,"ELEMENT_SET_NO":999,"REV_AT_EPOCH":22837,"BSTAR":-0.00039888899,"MEAN_MOTION_DOT":-1.33e-6,"MEAN_MOTION_DDOT":0},{"OBJECT_NAME":"ONEWEB-0113","OBJECT_ID":"2021-025J","EPOCH":"2025-12-07T22:56:36.558816","MEAN_MOTION":13.13984495,"ECCENTRICITY":0.00018261,"INCLINATION":87.8983,"RA_OF_ASC_NODE":358.1727,"ARG_OF_PERICENTER":99.6778,"MEAN_ANOMALY":260.4558,"EPHEMERIS_TYPE":0,"CLASSIFICATION_TYPE":"U","NORAD_CAT_ID":48050,"ELEMENT_SET_NO":999,"REV_AT_EPOCH":22849,"BSTAR":0.00065264798,"MEAN_MOTION_DOT":2.53e-6,"MEAN_MOTION_DDOT":0},{"OBJECT_NAME":"ONEWEB-0112","OBJECT_ID":"2021-025K","EPOCH":"2025-12-07T23:31:21.521280","MEAN_MOTION":13.13470222,"ECCENTRICITY":0.00016901,"INCLINATION":87.8984,"RA_OF_ASC_NODE":358.2019,"ARG_OF_PERICENTER":93.74,"MEAN_ANOMALY":266.3922,"EPHEMERIS_TYPE":0,"CLASSIFICATION_TYPE":"U","NORAD_CAT_ID":48051,"ELEMENT_SET_NO":999,"REV_AT_EPOCH":22849,"BSTAR":0.00023209902,"MEAN_MOTION_DOT":9.8e-7,"MEAN_MOTION_DDOT":0},{"OBJECT_NAME":"ONEWEB-0156","OBJECT_ID":"2021-025L","EPOCH":"2025-12-07T23:43:32.418624","MEAN_MOTION":13.13470105,"ECCENTRICITY":0.00016324,"INCLINATION":87.8981,"RA_OF_ASC_NODE":358.2118,"ARG_OF_PERICENTER":91.8477,"MEAN_ANOMALY":268.2839,"EPHEMERIS_TYPE":0,"CLASSIFICATION_TYPE":"U","NORAD_CAT_ID":48052,"ELEMENT_SET_NO":999,"REV_AT_EPOCH":22847,"BSTAR":-0.00028880661,"MEAN_MOTION_DOT":-9.3e-7,"MEAN_MOTION_DDOT":0},{"OBJECT_NAME":"ONEWEB-0161","OBJECT_ID":"2021-025M","EPOCH":"2025-12-07T19:27:35.831232","MEAN_MOTION":13.13469591,"ECCENTRICITY":0.00015508,"INCLINATION":87.898,"RA_OF_ASC_NODE":358.2629,"ARG_OF_PERICENTER":89.7891,"MEAN_ANOMALY":270.3416,"EPHEMERIS_TYPE":0,"CLASSIFICATION_TYPE":"U","NORAD_CAT_ID":48053,"ELEMENT_SET_NO":999,"REV_AT_EPOCH":22838,"BSTAR":0.0009561184,"MEAN_MOTION_DOT":3.62e-6,"MEAN_MOTION_DDOT":0},{"OBJECT_NAME":"ONEWEB-0158","OBJECT_ID":"2021-025N","EPOCH":"2025-12-07T23:58:10.144128","MEAN_MOTION":13.13470293,"ECCENTRICITY":0.00020911,"INCLINATION":87.8985,"RA_OF_ASC_NODE":358.2094,"ARG_OF_PERICENTER":91.0444,"MEAN_ANOMALY":269.0925,"EPHEMERIS_TYPE":0,"CLASSIFICATION_TYPE":"U","NORAD_CAT_ID":48054,"ELEMENT_SET_NO":999,"REV_AT_EPOCH":22853,"BSTAR":-0.00069517472,"MEAN_MOTION_DOT":-2.41e-6,"MEAN_MOTION_DDOT":0},{"OBJECT_NAME":"ONEWEB-0157","OBJECT_ID":"2021-025P","EPOCH":"2025-12-07T19:05:39.333696","MEAN_MOTION":13.13470303,"ECCENTRICITY":0.00013973,"INCLINATION":87.8983,"RA_OF_ASC_NODE":358.2562,"ARG_OF_PERICENTER":82.6325,"MEAN_ANOMALY":277.4963,"EPHEMERIS_TYPE":0,"CLASSIFICATION_TYPE":"U","NORAD_CAT_ID":48055,"ELEMENT_SET_NO":999,"REV_AT_EPOCH":22844,"BSTAR":0.00021859564,"MEAN_MOTION_DOT":9.3e-7,"MEAN_MOTION_DDOT":0},{"OBJECT_NAME":"ONEWEB-0162","OBJECT_ID":"2021-025Q","EPOCH":"2025-12-07T18:31:18.564960","MEAN_MOTION":13.13471984,"ECCENTRICITY":0.00016166,"INCLINATION":87.8987,"RA_OF_ASC_NODE":358.2629,"ARG_OF_PERICENTER":96.4678,"MEAN_ANOMALY":263.6635,"EPHEMERIS_TYPE":0,"CLASSIFICATION_TYPE":"U","NORAD_CAT_ID":48056,"ELEMENT_SET_NO":999,"REV_AT_EPOCH":22841,"BSTAR":-0.00061404867,"MEAN_MOTION_DOT":-2.11e-6,"MEAN_MOTION_DDOT":0},{"OBJECT_NAME":"ONEWEB-0155","OBJECT_ID":"2021-025R","EPOCH":"2025-12-07T13:12:09.936864","MEAN_MOTION":13.1347256,"ECCENTRICITY":0.00017599,"INCLINATION":87.8987,"RA_OF_ASC_NODE":358.3121,"ARG_OF_PERICENTER":86.3515,"MEAN_ANOMALY":273.7816,"EPHEMERIS_TYPE":0,"CLASSIFICATION_TYPE":"U","NORAD_CAT_ID":48057,"ELEMENT_SET_NO":999,"REV_AT_EPOCH":22852,"BSTAR":-0.00057416655,"MEAN_MOTION_DOT":-1.97e-6,"MEAN_MOTION_DDOT":0},{"OBJECT_NAME":"ONEWEB-0149","OBJECT_ID":"2021-025S","EPOCH":"2025-12-07T22:52:21.101664","MEAN_MOTION":13.13471544,"ECCENTRICITY":0.00016354,"INCLINATION":87.898,"RA_OF_ASC_NODE":358.2255,"ARG_OF_PERICENTER":98.8993,"MEAN_ANOMALY":261.2321,"EPHEMERIS_TYPE":0,"CLASSIFICATION_TYPE":"U","NORAD_CAT_ID":48058,"ELEMENT_SET_NO":999,"REV_AT_EPOCH":22838,"BSTAR":0.00048710541,"MEAN_MOTION_DOT":1.91e-6,"MEAN_MOTION_DDOT":0},{"OBJECT_NAME":"ONEWEB-0148","OBJECT_ID":"2021-025T","EPOCH":"2025-12-07T18:19:19.787808","MEAN_MOTION":13.13470671,"ECCENTRICITY":0.00012905,"INCLINATION":87.8974,"RA_OF_ASC_NODE":358.283,"ARG_OF_PERICENTER":108.182,"MEAN_ANOMALY":251.945,"EPHEMERIS_TYPE":0,"CLASSIFICATION_TYPE":"U","NORAD_CAT_ID":48059,"ELEMENT_SET_NO":999,"REV_AT_EPOCH":22848,"BSTAR":-0.0003917078,"MEAN_MOTION_DOT":-1.3e-6,"MEAN_MOTION_DDOT":0},{"OBJECT_NAME":"ONEWEB-0160","OBJECT_ID":"2021-025U","EPOCH":"2025-12-07T18:43:42.663360","MEAN_MOTION":13.13471277,"ECCENTRICITY":0.00025047,"INCLINATION":87.898,"RA_OF_ASC_NODE":358.2772,"ARG_OF_PERICENTER":99.8777,"MEAN_ANOMALY":260.2635,"EPHEMERIS_TYPE":0,"CLASSIFICATION_TYPE":"U","NORAD_CAT_ID":48060,"ELEMENT_SET_NO":999,"REV_AT_EPOCH":22843,"BSTAR":-0.00044610932,"MEAN_MOTION_DOT":-1.5e-6,"MEAN_MOTION_DDOT":0},{"OBJECT_NAME":"ONEWEB-0163","OBJECT_ID":"2021-025V","EPOCH":"2025-12-07T14:42:21.860928","MEAN_MOTION":13.13467996,"ECCENTRICITY":0.00015175,"INCLINATION":87.8985,"RA_OF_ASC_NODE":358.2962,"ARG_OF_PERICENTER":84.4758,"MEAN_ANOMALY":275.6544,"EPHEMERIS_TYPE":0,"CLASSIFICATION_TYPE":"U","NORAD_CAT_ID":48061,"ELEMENT_SET_NO":999,"REV_AT_EPOCH":22853,"BSTAR":-0.00078854009,"MEAN_MOTION_DOT":-2.75e-6,"MEAN_MOTION_DDOT":0},{"OBJECT_NAME":"ONEWEB-0159","OBJECT_ID":"2021-025W","EPOCH":"2025-12-07T23:38:40.369344","MEAN_MOTION":13.13470045,"ECCENTRICITY":0.00015018,"INCLINATION":87.8985,"RA_OF_ASC_NODE":358.2061,"ARG_OF_PERICENTER":91.0008,"MEAN_ANOMALY":269.1293,"EPHEMERIS_TYPE":0,"CLASSIFICATION_TYPE":"U","NORAD_CAT_ID":48062,"ELEMENT_SET_NO":999,"REV_AT_EPOCH":22850,"BSTAR":-8.1397907e-5,"MEAN_MOTION_DOT":-1.7e-7,"MEAN_MOTION_DDOT":0},{"OBJECT_NAME":"ONEWEB-0164","OBJECT_ID":"2021-025X","EPOCH":"2025-12-07T23:11:51.328320","MEAN_MOTION":13.13470863,"ECCENTRICITY":0.00018082,"INCLINATION":87.8985,"RA_OF_ASC_NODE":358.2167,"ARG_OF_PERICENTER":91.9538,"MEAN_ANOMALY":268.1798,"EPHEMERIS_TYPE":0,"CLASSIFICATION_TYPE":"U","NORAD_CAT_ID":48063,"ELEMENT_SET_NO":999,"REV_AT_EPOCH":22848,"BSTAR":0.0010584567,"MEAN_MOTION_DOT":3.99e-6,"MEAN_MOTION_DDOT":0},{"OBJECT_NAME":"ONEWEB-0167","OBJECT_ID":"2021-025Y","EPOCH":"2025-12-07T18:22:59.636928","MEAN_MOTION":13.13469262,"ECCENTRICITY":0.0001856,"INCLINATION":87.8976,"RA_OF_ASC_NODE":358.2845,"ARG_OF_PERICENTER":69.2896,"MEAN_ANOMALY":290.8431,"EPHEMERIS_TYPE":0,"CLASSIFICATION_TYPE":"U","NORAD_CAT_ID":48064,"ELEMENT_SET_NO":999,"REV_AT_EPOCH":22844,"BSTAR":-0.00045769113,"MEAN_MOTION_DOT":-1.54e-6,"MEAN_MOTION_DDOT":0}]
