ONEWEB-0101             
1 48049U 21025H   25341.78542932 -.00000133  00000+0 -39889-3 0  9998
2 48049  87.8979 358.2771 0001710  87.0805 273.0520 13.13471553228379
ONEWEB-0113             
1 48050U 21025J   25341.95597869  .00000253  00000+0  65265-3 0  9996
2 48050  87.8983 358.1727 0001826  99.6778 260.4558 13.13984495228490
ONEWEB-0112             
1 48051U 21025K   25341.98011020  .00000098  00000+0  23210-3 0  9991
2 48051  87.8984 358.2019 0001690  93.7400 266.3922 13.13470222228491
ONEWEB-0156             
1 48052U 21025L   25341.98856966 -.00000093  00000+0 -28881-3 0  9994
2 48052  87.8981 358.2118 0001632  91.8477 268.2839 13.13470105228474
ONEWEB-0161             
1 48053U 21025M   25341.81083138  .00000362  00000+0  95612-3 0  9993
2 48053  87.8980 358.2629 0001550  89.7891 270.3416 13.13469591228388
ONEWEB-0158             
1 48054U 21025N   25341.99872852 -.00000241  00000+0 -69517-3 0  9995
2 48054  87.8985 358.2094 0002091  91.0444 269.0925 13.13470293228539
ONEWEB-0157             
1 48055U 21025P   25341.79559414  .00000093  00000+0  21860-3 0  9992
2 48055  87.8983 358.2562 0001397  82.6325 277.4963 13.13470303228447
ONEWEB-0162             
1 48056U 21025Q   25341.77174265 -.00000211  00000+0 -61405-3 0  9991
2 48056  87.8987 358.2629 0001616  96.4678 263.6635 13.13471984228410
ONEWEB-0155             
1 48057U 21025R   25341.55011501 -.00000197  00000+0 -57417-3 0  9992
2 48057  87.8987 358.3121 0001759  86.3515 273.7816 13.13472560228521
ONEWEB-0149             
1 48058U 21025S   25341.95302201  .00000191  00000+0  48711-3 0  9996
2 48058  87.8980 358.2255 0001635  98.8993 261.2321 13.13471544228381
ONEWEB-0148             
1 48059U 21025T   25341.76342347 -.00000130  00000+0 -39171-3 0  9996
2 48059  87.8974 358.2830 0001290 108.1820 251.9450 13.13470671228485
ONEWEB-0160             
1 48060U 21025U   25341.78035490 -.00000150  00000+0 -44611-3 0  9995
2 48060  87.8980 358.2772 0002504  99.8777 260.2635 13.13471277228431
ONEWEB-0163             
1 48061U 21025V   25341.61275302 -.00000275  00000+0 -78854-3 0  9990
2 48061  87.8985 358.2962 0001517  84.4758 275.6544 13.13467996228533
ONEWEB-0159             
1 48062U 21025W   25341.98518946 -.00000017  00000+0 -81398-4 0  9997
2 48062  87.8985 358.2061 0001501  91.0008 269.1293 13.13470045228504
ONEWEB-0164             
1 48063U 21025X   25341.96656630  .00000399  00000+0  10585-2 0  9998
2 48063  87.8985 358.2167 0001808  91.9538 268.1798 13.13470863228483
ONEWEB-0167             
1 48064U 21025Y   25341.76596802 -.00000154  00000+0 -45769-3 0  9995
2 48064  87.8976 358.2845 0001856  69.2896 290.8431 13.13469262228448
